OBJECT_NAME,OBJECT_ID,EPOCH,MEAN_MOTION,ECCENTRICITY,INCLINATION,RA_OF_ASC_NODE,ARG_OF_PERICENTER,MEAN_ANOMALY,EPHEMERIS_TYPE,CLASSIFICATION_TYPE,NORAD_CAT_ID,ELEMENT_SET_NO,REV_AT_EPOCH,BSTAR,MEAN_MOTION_DOT,MEAN_MOTION_DDOT
INNOCUBE (TUBSAT-31),2025-009H,2026-06-07T04:30:57.397248,15.26366632,.00061,97.3899,238.2855,22.9305,337.2205,0,U,62616,999,7729,.32181E-3,.8299E-4,0
SCOT-1 (SCOT),2025-009J,2026-06-07T05:24:15.010272,15.53026122,.0002147,97.3871,245.7724,308.7388,51.3673,0,U,62617,999,7780,.86156E-3,.5396E-3,0
AE1D,2025-009K,2026-06-07T05:31:32.935584,15.59535573,.0001872,97.3950,247.6509,306.0664,54.0419,0,U,62618,999,7789,.11986E-2,.95988E-3,0
IRIS-F3,2025-009L,2026-06-07T11:42:29.471040,15.26932819,.0006393,97.4040,239.4047,11.9840,348.1549,0,U,62619,999,7734,.239E-3,.625E-4,0
TRANSPORTER-12 OBJECT M,2025-009M,2026-06-07T04:14:25.553760,15.60039574,.0002525,97.3913,247.7269,277.6286,82.4684,0,U,62620,999,7789,.11609E-2,.94751E-3,0
FLOCK 4G-13,2025-009N,2026-06-07T11:54:18.421056,15.43420635,.0002109,97.3956,241.5940,321.7915,38.3183,0,U,62621,999,7750,.16065E-2,.72296E-3,0
FLOCK 4G-9,2025-009P,2026-06-07T04:30:15.121728,15.27885902,.0004564,97.3952,239.2120,18.9998,341.1411,0,U,62622,999,7733,.35396E-3,.9567E-4,0
OTTER,2025-009Q,2026-06-07T04:44:38.821056,15.29678893,.0004296,97.4025,240.3899,4.3614,355.7663,0,U,62623,999,7739,.36048E-3,.10296E-3,0
FLOCK 4G-7,2025-009R,2026-06-07T12:11:59.916768,15.29133525,.0002445,97.3941,239.8814,28.9242,331.2133,0,U,62624,999,7742,.43713E-3,.12294E-3,0
FLOCK 4G-12,2025-009S,2026-06-07T04:10:14.422656,15.28992829,.0003585,97.4017,240.0645,8.3072,351.8227,0,U,62625,999,7737,.43059E-3,.12058E-3,0
MBZ-SAT,2025-009T,2026-06-07T11:30:30.814848,15.17991683,.0005186,97.3978,236.9763,39.4342,320.7268,0,U,62626,999,7721,.15947E-4,.258E-5,0
RAY 1.0,2025-009U,2026-06-07T11:30:56.994048,15.20679276,.0007451,97.3983,236.9816,317.9331,42.1332,0,U,62627,999,7720,.16785E-3,.3621E-4,0
ION SCV-016,2025-009V,2026-06-07T09:02:32.305056,14.50637239,.0590827,97.4304,197.5505,136.9200,227.9847,0,U,62628,999,7412,.58091E-3,.27698E-3,0
FLOCK 4G-11,2025-009W,2026-06-07T11:44:08.927808,15.29153856,.0002652,97.3922,239.9789,31.5528,328.5871,0,U,62629,999,7743,.40524E-3,.11398E-3,0
ION SCV-014,2025-009X,2026-06-07T11:19:50.767104,15.05204698,.0005385,97.4860,231.9287,155.6153,204.5330,0,U,62630,999,7652,.15133E-3,.21E-4,0
PELICAN-2,2025-009Y,2026-06-06T23:29:32.819712,15.40706652,.0000813,97.2860,248.8531,76.5370,283.5967,0,U,62631,999,7798,.31923E-5,.49E-6,0
SIGI,2025-009Z,2026-06-07T11:33:12.095136,15.24525706,.000305,97.4001,238.7914,16.2054,343.9280,0,U,62632,999,7732,.27263E-3,.6637E-4,0
FLOCK 4G-26,2025-009AA,2026-06-07T04:17:58.000128,15.29250906,.000276,97.4015,240.2174,4.8231,355.3036,0,U,62633,999,7738,.44734E-3,.12629E-3,0
FLOCK 4G-28,2025-009AB,2026-06-07T05:03:39.764160,15.34662709,.0001669,97.4024,242.7240,32.6061,327.5285,0,U,62634,999,7755,.26245E-3,.8737E-4,0
GARAI-A,2025-009AC,2026-06-06T22:51:40.657824,15.18852277,.0002762,97.3989,237.9402,41.9340,318.2106,0,U,62635,999,7722,.18073E-3,.3698E-4,0
FLOCK 4G-20,2025-009AD,2026-06-07T11:47:40.147296,15.51488824,.0001489,97.3865,242.6440,240.8678,119.2426,0,U,62636,999,7761,.17596E-2,.105077E-2,0
FLOCK 4G-24,2025-009AE,2026-06-07T04:47:05.900640,15.29687571,.000207,97.4020,240.5180,354.9808,5.1411,0,U,62637,999,7740,.32841E-3,.9373E-4,0
FLOCK 4G-3,2025-009AG,2026-06-07T04:18:59.294016,15.29156142,.0002235,97.4024,240.2362,9.7989,350.3294,0,U,62639,999,7737,.43674E-3,.12291E-3,0
NUSAT-45 (UZMASAT-1),2025-009AH,2026-06-07T04:23:59.039808,15.30379779,.0002354,97.3590,239.4819,44.7626,315.3805,0,U,62640,999,7739,.33926E-3,.9896E-4,0
FLOCK 4G-27,2025-009AJ,2026-06-07T04:45:19.390176,15.29111738,.000196,97.3933,239.6508,29.9749,330.1603,0,U,62641,999,7737,.38864E-3,.10912E-3,0
FLOCK 4G-29,2025-009AK,2026-06-07T04:27:08.627328,15.29217079,.0002058,97.4018,240.2017,3.1231,357.0021,0,U,62642,999,7737,.3605E-3,.10149E-3,0
ANSER LEADER-S,2025-009AM,2026-06-07T00:25:52.425696,15.46094119,.0001636,97.4020,244.4456,335.5481,24.5690,0,U,62644,999,7763,.1483E-2,.73066E-3,0
FLOCK 4G-22,2025-009AN,2026-06-07T04:49:25.247424,15.29074973,.0001691,97.4004,240.2648,15.3325,344.7966,0,U,62645,999,7739,.38086E-3,.1068E-3,0
FLOCK 4G-25,2025-009AP,2026-06-07T04:19:15.589056,15.29259986,.0001648,97.4011,240.3066,32.6587,327.4755,0,U,62646,999,7739,.40608E-3,.11458E-3,0
FLOCK 4G-23,2025-009AQ,2026-06-07T04:22:03.866016,15.31857630,.0000319,97.3930,239.8639,204.3684,155.7542,0,U,62647,999,7739,.13452E-2,.41479E-3,0
LIME,2025-009AR,2026-06-07T11:37:59.935008,15.30701389,.0002558,97.3948,240.7968,60.1070,300.0425,0,U,62648,999,7748,.37133E-3,.10948E-3,0
AE1C,2025-009AS,2026-06-07T05:11:16.241280,15.45071736,.0000741,97.4020,245.5976,25.2218,334.9066,0,U,62649,999,7774,.73158E-3,.34592E-3,0
FLOCK 4G-34,2025-009AT,2026-06-07T04:18:08.754336,15.29072946,.0001648,97.3960,239.8308,36.5635,323.5717,0,U,62650,999,7738,.40469E-3,.11353E-3,0
FLOCK 4G-21,2025-009AU,2026-06-07T11:31:46.966080,15.30489058,.0001479,97.3990,240.9920,32.3888,327.7444,0,U,62651,999,7747,.30093E-3,.8797E-4,0
FLOCK 4G-31,2025-009AV,2026-06-07T11:11:03.373728,15.28881688,.0001717,97.3963,240.0962,53.6302,306.5096,0,U,62652,999,7742,.36638E-3,.1021E-3,0
PAUSAT-1,2025-009AW,2026-06-07T10:59:05.483904,15.23500019,.0002114,97.3952,238.2445,47.6375,312.5041,0,U,62653,999,7730,.19335E-3,.4544E-4,0
BRO-16,2025-009AX,2026-06-07T11:48:38.544192,15.23876252,.0001839,97.4051,239.0968,31.8558,328.2790,0,U,62654,999,7732,.21722E-3,.5171E-4,0
TRANSPORTER-12 OBJECT AY,2025-009AY,2026-06-07T05:19:40.456128,15.40916402,.0000226,97.4020,244.5135,266.6273,93.4947,0,U,62655,999,7766,.61464E-3,.25239E-3,0
TRANSPORTER-12 OBJECT AZ,2025-009AZ,2026-06-07T11:27:58.847616,15.32765977,.0001769,97.3938,241.5689,64.0805,296.0619,0,U,62656,999,7753,.42255E-3,.13302E-3,0
TRANSPORTER-12 OBJECT BA,2025-009BA,2026-06-07T11:31:08.868000,15.28841419,.0000977,97.3945,240.2539,17.4827,342.6446,0,U,62657,999,7744,.33213E-3,.9236E-4,0
TROLL,2025-009BB,2026-06-07T04:55:03.789408,15.29964375,.0002491,97.3886,240.1076,77.0076,283.1443,0,U,62658,999,13192,.32849E-3,.9456E-4,0
FLOCK 4G-4,2025-009BC,2026-06-07T11:30:59.669856,15.29630645,.0002171,97.3943,239.8370,0.7666,359.3577,0,U,62659,999,13502,.1208E-2,.34731E-3,0
FLOCK 4G-6,2025-009BD,2026-06-07T11:10:41.536992,15.29346414,.0003375,97.3938,239.9371,32.9514,327.1936,0,U,62660,999,13501,.32478E-3,.9172E-4,0
FLOCK 4G-2,2025-009BE,2026-06-07T11:12:58.195872,15.29650463,.0003906,97.4003,240.5282,20.7581,339.3817,0,U,62661,999,13504,.336E-3,.9582E-4,0
FLOCK 4G-5,2025-009BG,2026-06-07T11:27:18.688896,15.30298215,.0002899,97.4022,240.8942,8.7519,351.3772,0,U,62663,999,7745,.31015E-3,.9016E-4,0
LYRA-1,2025-009BH,2026-06-06T15:49:25.748256,15.18660682,.0008059,97.3976,232.4651,221.1338,138.9290,0,U,62664,999,7682,.55257E-3,.11401E-3,0
JAY-D2,2025-009BJ,2026-06-06T23:52:51.220128,15.22302242,.0004523,97.3886,236.6578,29.9618,330.1876,0,U,62665,999,7718,.18417E-3,.4173E-4,0
FLOCK 4G-1,2025-009BK,2026-06-07T04:28:43.530816,15.29447857,.0003987,97.4019,240.2300,17.7821,342.3558,0,U,62666,999,7738,.40514E-3,.115E-3,0
FLOCK 4G-14,2025-009BL,2026-06-07T11:14:30.280128,15.29028537,.000397,97.4020,240.3318,12.2745,347.8591,0,U,62667,999,7741,.36656E-3,.10263E-3,0
JAY-C,2025-009BM,2026-06-07T10:56:34.980288,15.22289117,.0004975,97.3957,237.5385,33.1200,327.0347,0,U,62668,999,13489,.17792E-3,.4028E-4,0
JAY-D1,2025-009BN,2026-06-07T09:21:02.648736,15.22285287,.0005854,97.4028,237.9038,33.7558,326.4050,0,U,62669,999,13488,.18827E-3,.4266E-4,0
FLOCK 4G-10,2025-009BP,2026-06-07T11:33:44.449344,15.29107662,.0004479,97.3921,239.6874,30.0191,330.1305,0,U,62670,999,13505,.40763E-3,.11451E-3,0
SKYBEE-A01,2025-009BQ,2026-06-07T11:31:07.497696,15.20962338,.0005697,97.3985,237.2349,25.1631,334.9881,0,U,62671,999,13486,.14215E-3,.308E-4,0
TRANSPORTER-12 OBJECT BR,2025-009BR,2026-06-07T04:13:36.659136,15.22868817,.0005046,97.3952,237.4279,28.6176,331.5337,0,U,62672,999,13486,.20485E-3,.4729E-4,0
LEO EXPRESS 2,2025-009BS,2026-06-07T11:37:19.543008,15.24700907,.0001802,97.4110,232.5436,192.1808,167.9386,0,U,62673,999,13511,.24911E-3,.609E-4,0
TRANSPORTER-12 OBJECT BT,2025-009BT,2026-06-07T04:18:33.632352,15.29943760,.0004282,97.4055,240.6553,6.2090,353.9203,0,U,62674,999,13503,.41296E-3,.11905E-3,0
FLOCK 4G-36,2025-009BU,2026-06-07T11:25:26.272128,15.29132610,.0004299,97.4010,240.2615,14.5295,345.6067,0,U,62675,999,7741,.35247E-3,.9897E-4,0
FOSSASAT-2E19 (TAT-E),2025-009BV,2026-06-07T04:13:06.059712,15.21102032,.0005698,97.3954,236.6323,30.8524,329.3046,0,U,62676,999,7717,.14928E-3,.3252E-4,0
ELEVATION-1,2025-009BW,2026-06-07T12:25:12.209088,15.41486015,.0002846,97.3829,243.6131,4.7303,355.3971,0,U,62677,999,13533,.69102E-3,.28944E-3,0
FLOCK 4G-15,2025-009BX,2026-06-07T11:38:09.478752,15.29188686,.0004336,97.4011,240.4072,10.6556,349.4775,0,U,62678,999,13506,.36584E-3,.10293E-3,0
FLOCK 4G-30,2025-009BY,2026-06-07T04:18:16.331616,15.31565247,.0002614,97.3920,239.4937,14.5969,345.5347,0,U,62679,999,13501,.12739E-2,.38911E-3,0
FLOCK 4G-18,2025-009BZ,2026-06-07T11:28:59.719872,15.30048655,.0004699,97.4012,240.2374,7.6356,352.4955,0,U,62680,999,13505,.86008E-3,.25001E-3,0
FLOCK 4G-17,2025-009CA,2026-06-07T04:31:18.604992,15.29345632,.0004634,97.3921,239.6203,27.1011,333.0470,0,U,62681,999,13502,.39627E-3,.11211E-3,0
FOREST-3,2025-009CB,2026-06-07T04:33:50.444352,15.24662956,.0005518,97.3901,237.7861,36.3562,323.8050,0,U,62682,999,13491,.29853E-3,.7307E-4,0
IRIS-F2,2025-009CD,2026-06-07T11:58:51.580704,15.26407223,.0005781,97.3886,238.3808,38.8779,321.2874,0,U,62684,999,13498,.58783E-3,.15251E-3,0
FLOCK 4G-33,2025-009CE,2026-06-07T11:22:46.873632,15.25350187,.0005533,97.3942,238.4570,21.2788,338.8679,0,U,62685,999,7732,.24896E-3,.6208E-4,0
